[{"OBJECT_NAME":"REIMEI (INDEX)","OBJECT_ID":"2005-031B","EPOCH":"2026-03-09T21:15:47.083968","MEAN_MOTION":15.09838737,"ECCENTRICITY":0.00209792,"INCLINATION":97.9988,"RA_OF_ASC_NODE":188.389,"ARG_OF_PERICENTER":89.5619,"MEAN_ANOMALY":270.8013,"EPHEMERIS_TYPE":0,"CLASSIFICATION_TYPE":"U","NORAD_CAT_ID":28810,"ELEMENT_SET_NO":999,"REV_AT_EPOCH":11600,"BSTAR":0.00050498736,"MEAN_MOTION_DOT":8.144e-5,"MEAN_MOTION_DDOT":0},{"OBJECT_NAME":"STARLINK-3696","OBJECT_ID":"2022-025K","EPOCH":"2026-03-10T00:00:02.999808","MEAN_MOTION":15.09748411,"ECCENTRICITY":0.00012461,"INCLINATION":53.0656,"RA_OF_ASC_NODE":34.4217,"ARG_OF_PERICENTER":91.4516,"MEAN_ANOMALY":315.6909,"EPHEMERIS_TYPE":0,"CLASSIFICATION_TYPE":"U","NORAD_CAT_ID":51965,"ELEMENT_SET_NO":999,"REV_AT_EPOCH":579,"BSTAR":0.0013311112,"MEAN_MOTION_DOT":0.00021497,"MEAN_MOTION_DDOT":0}]
